NORAD_CAT_ID,OBJECT_NAME,OBJECT_TYPE,EPOCH,MEAN_MOTION,ECCENTRICITY,INCLINATION,RA_OF_ASC_NODE,ARG_OF_PERICENTER,MEAN_ANOMALY,BSTAR,MEAN_MOTION_DOT,MEAN_MOTION_DDOT,TLE_LINE0,TLE_LINE1,TLE_LINE2,SEMIMAJOR_AXIS,PERIOD,APOGEE,PERIGEE,DECAYED
53867.0,STARLINK-4793,PAYLOAD,2022-10-16 14:00:01,15.73159663,0.0001304,53.2162,122.4602,104.2201,61.81,8.1685e-05,0.00010839,0.0,0 STARLINK-4793,1 53867U 22114BB  22289.58334491  .00010839  00000-0  81685-4 0  9992,2 53867  53.2162 122.4602 0001304 104.2201  61.8100 15.73159663  1301,6728.01,91.536,350.75300000000016,348.99800000000016,0.0
53867.0,STARLINK-4793,PAYLOAD,2022-10-16 22:00:00,15.7314649,0.000128,53.2163,120.8129,88.9927,165.9252,0.00070675,0.00099521,0.0,0 STARLINK-4793,1 53867U 22114BB  22289.91667824  .00099521  00000-0  70675-3 0  9999,2 53867  53.2163 120.8129 0001280  88.9927 165.9252 15.73146490  1302,6728.0480000000025,91.536,350.774,349.052,0.0
53867.0,STARLINK-4793,PAYLOAD,2022-10-17 06:00:00,15.7324365,0.0001069,53.2166,119.162,97.7731,246.0469,-0.00042128,-0.00059436,0.0,0 STARLINK-4793,1 53867U 22114BB  22290.25001157 -.00059436  00000-0 -42128-3 0  9994,2 53867  53.2166 119.1620 0001069  97.7731 246.0469 15.73243650  5017,6727.771,91.531,350.355,348.917,0.0
53867.0,STARLINK-4793,PAYLOAD,2022-10-17 14:00:01,15.73257071,0.0001059,53.2163,117.5122,101.1248,331.6827,0.00010914,0.00014761,0.0,0 STARLINK-4793,1 53867U 22114BB  22290.58334491  .00014761  00000-0  10914-3 0  9998,2 53867  53.2163 117.5122 0001059 101.1248 331.6827 15.73257071  5061,6727.732,91.53,350.31,348.885,0.0
53867.0,STARLINK-4793,PAYLOAD,2022-10-17 22:00:00,15.73214785,0.000101,53.2159,115.8647,82.7178,79.0608,-0.00017083,-0.00024539,0.0,0 STARLINK-4793,1 53867U 22114BB  22290.91667824 -.00024539  00000-0 -17083-3 0  9994,2 53867  53.2159 115.8647 0001010  82.7178  79.0608 15.73214785  5124,6727.853,91.532,350.398,349.039,0.0
53867.0,STARLINK-4793,PAYLOAD,2022-10-18 14:00:01,15.73178323,0.0001059,53.2161,112.5638,93.4895,246.1184,0.00023815,0.00032903,0.0,0 STARLINK-4793,1 53867U 22114BB  22291.58334491  .00032903  00000-0  23815-3 0  9991,2 53867  53.2161 112.5638 0001059  93.4895 246.1184 15.73178323  1308,6727.956999999999,91.534,350.534,349.1090000000001,0.0
53867.0,STARLINK-4793,PAYLOAD,2022-10-18 22:00:00,15.73202182,0.0001515,53.2176,110.9174,90.5912,337.9544,2.8362e-05,3.362e-05,0.0,0 STARLINK-4793,1 53867U 22114BB  22291.91667824  .00003362  00000-0  28362-4 0  9997,2 53867  53.2176 110.9174 0001515  90.5912 337.9544 15.73202182  5276,6727.889,91.533,350.773,348.735,0.0
53867.0,STARLINK-4793,PAYLOAD,2022-10-19 14:00:01,15.73226937,0.0001079,53.2162,107.6155,83.4961,162.9005,0.00031134,0.0004335,0.0,0 STARLINK-4793,1 53867U 22114BB  22292.58334491  .00043350  00000-0  31134-3 0  9993,2 53867  53.2162 107.6155 0001079  83.4961 162.9005 15.73226937  1305,6727.818,91.532,350.409,348.957,0.0
53867.0,STARLINK-4793,PAYLOAD,2022-10-19 22:00:00,15.73232683,0.0001079,53.2165,105.9686,69.6217,265.7649,-0.00088808,-0.0012361,0.0,0 STARLINK-4793,1 53867U 22114BB  22292.91667824 -.00123610  00000-0 -88808-3 0  9999,2 53867  53.2165 105.9686 0001079  69.6217 265.7649 15.73232683  1309,6727.802,91.531,350.39300000000014,348.941,0.0
53867.0,STARLINK-4793,PAYLOAD,2022-10-20 06:00:00,15.73248968,0.0001145,53.2154,104.3163,79.9531,344.3988,-0.00057038,-0.00080076,0.0,0 STARLINK-4793,1 53867U 22114BB  22293.25001157 -.00080076  00000-0 -57038-3 0  9997,2 53867  53.2154 104.3163 0001145  79.9531 344.3988 15.73248968  5483,6727.755999999999,91.53,350.391,348.85,0.0
53867.0,STARLINK-4793,PAYLOAD,2022-10-20 14:00:01,15.73189718,0.0001231999999999,53.2156,102.6669,80.0078,73.2744,-0.00063544,-0.00088824,0.0,0 STARLINK-4793,1 53867U 22114BB  22293.58334491 -.00088824  00000-0 -63544-3 0  9991,2 53867  53.2156 102.6669 0001232  80.0078  73.2744 15.73189718  1305,6727.924,91.534,350.61800000000005,348.961,0.0
53867.0,STARLINK-4793,PAYLOAD,2022-10-20 22:00:00,15.73078127,0.0001207,53.2158,101.0193,61.662,180.5105,0.00061962,0.00086786,0.0,0 STARLINK-4793,1 53867U 22114BB  22293.91667824  .00086786  00000-0  61962-3 0  9992,2 53867  53.2158 101.0193 0001207  61.6620 180.5105 15.73078127  1306,6728.243,91.54,350.92,349.296,0.0
53867.0,STARLINK-4793,PAYLOAD,2022-10-21 06:00:00,15.73150773,0.000103,53.2161,99.3677,69.3939,261.6803,0.00053709,0.00075275,0.0,0 STARLINK-4793,1 53867U 22114BB  22294.25001157  .00075275  00000-0  53709-3 0  9992,2 53867  53.2161  99.3677 0001030  69.3939 261.6803 15.73150773  5643,6728.036,91.536,350.594,349.208,0.0
53867.0,STARLINK-4793,PAYLOAD,2022-10-21 14:00:01,15.73262987,0.0001139999999999,53.2162,97.7186,67.1849,352.8458,0.00017948,0.0002471,0.0,0 STARLINK-4793,1 53867U 22114BB  22294.58334491  .00024710  00000-0  17948-3 0  9991,2 53867  53.2162  97.7186 0001140  67.1849 352.8458 15.73262987  5694,6727.715999999999,91.53,350.348,348.814,0.0
53867.0,STARLINK-4793,PAYLOAD,2022-10-21 22:00:00,15.73319112,0.0001268,53.2162,96.0715,61.9144,87.1359,-0.0028024,-0.00378659,0.0,0 STARLINK-4793,1 53867U 22114BB  22294.91667824 -.00378659  00000-0 -28024-2 0  9999,2 53867  53.2162  96.0715 0001268  61.9144  87.1359 15.73319112  5753,6727.556,91.526,350.274,348.5680000000001,0.0
53867.0,STARLINK-4793,PAYLOAD,2022-10-22 08:00:01,15.73208513,0.0001203,53.2172,94.007,89.9891,260.1309,-4.3698e-05,-6.75e-05,0.0,0 STARLINK-4793,1 53867U 22114BB  22295.33334491 -.00006750  00000-0 -43698-4 0  9993,2 53867  53.2172  94.0070 0001203  89.9891 260.1309 15.73208513  5811,6727.871,91.533,350.545,348.927,0.0
53867.0,STARLINK-4793,PAYLOAD,2022-10-22 14:00:01,15.73255808,0.0001273,53.2149,92.7694,61.3399,265.5724,-0.00054843,-0.0007707,0.0,0 STARLINK-4793,1 53867U 22114BB  22295.58334491 -.00077070  00000-0 -54843-3 0  9996,2 53867  53.2149  92.7694 0001273  61.3399 265.5724 15.73255808  1305,6727.736,91.53,350.458,348.745,0.0
53867.0,STARLINK-4793,PAYLOAD,2022-10-22 22:00:00,15.73230122,0.0001448,53.2148,91.1211,49.5128,6.3729999999999976,0.00038866,0.0005434999999999,0.0,0 STARLINK-4793,1 53867U 22114BB  22295.91667824  .00054350  00000-0  38866-3 0  9993,2 53867  53.2148  91.1211 0001448  49.5128   6.3730 15.73230122  1304,6727.809,91.531,350.648,348.7,0.0
53867.0,STARLINK-4793,PAYLOAD,2022-10-23 00:00:02,15.73276809,0.0001384,53.2148,90.7082,49.6709,118.5131,-0.00025494,-0.00036363,0.0,0 STARLINK-4793,1 53867U 22114BB  22296.00002315 -.00036363  00000-0 -25494-3 0  9991,2 53867  53.2148  90.7082 0001384  49.6709 118.5131 15.73276809  5925,6727.676,91.529,350.472,348.61,0.0
53867.0,STARLINK-4793,PAYLOAD,2022-10-23 14:00:01,15.73270183,0.0001372,53.2149,87.8205,52.518,181.3387,-0.00046781,-0.00065959,0.0,0 STARLINK-4793,1 53867U 22114BB  22296.58334491 -.00065959  00000-0 -46781-3 0  9992,2 53867  53.2149  87.8205 0001372  52.5180 181.3387 15.73270183  1301,6727.695,91.529,350.483,348.63699999999994,0.0
53867.0,STARLINK-4793,PAYLOAD,2022-10-23 22:00:00,15.7322443,0.0001448,53.2143,86.1719,41.4928,281.3462,-0.00045053,-0.00063441,0.0,0 STARLINK-4793,1 53867U 22114BB  22296.91667824 -.00063441  00000-0 -45053-3 0  9993,2 53867  53.2143  86.1719 0001448  41.4928 281.3462 15.73224430  1307,6727.826,91.532,350.665,348.716,0.0
53867.0,STARLINK-4793,PAYLOAD,2022-10-24 06:00:00,15.73230119,0.0001220999999999,53.2158,84.5213,44.5947,7.1045,-0.0018669,-0.00255163,0.0,0 STARLINK-4793,1 53867U 22114BB  22297.25001157 -.00255163  00000-0 -18669-2 0  9998,2 53867  53.2158  84.5213 0001221  44.5947   7.1045 15.73230119  6114,6727.809,91.531,350.496,348.853,0.0
53867.0,STARLINK-4793,PAYLOAD,2022-10-24 14:00:01,15.7321913,0.0001325,53.2149,82.8718,42.1431,98.4368,-0.00047754,-0.00067161,0.0,0 STARLINK-4793,1 53867U 22114BB  22297.58334491 -.00067161  00000-0 -47754-3 0  9991,2 53867  53.2149  82.8718 0001325  42.1431  98.4368 15.73219130  6179,6727.840999999999,91.532,350.597,348.814,0.0
53867.0,STARLINK-4793,PAYLOAD,2022-10-24 22:00:00,15.73145554,0.0001425,53.2148,81.2233,29.9943,199.5066,0.00063854,0.00089747,0.0,0 STARLINK-4793,1 53867U 22114BB  22297.91667824  .00089747  00000-0  63854-3 0  9998,2 53867  53.2148  81.2233 0001425  29.9943 199.5066 15.73145554  1301,6728.05,91.536,350.874,348.957,0.0
53867.0,STARLINK-4793,PAYLOAD,2022-10-25 06:00:00,15.73204717,0.0001361999999999,53.2151,79.5718,38.2266,280.172,-0.00019579,-0.00028012,0.0,0 STARLINK-4793,1 53867U 22114BB  22298.25001157 -.00028012  00000-0 -19579-3 0  9992,2 53867  53.2151  79.5718 0001362  38.2266 280.1720 15.73204717  6276,6727.882,91.533,350.663,348.83,0.0
53867.0,STARLINK-4793,PAYLOAD,2022-10-25 14:00:01,15.73174047,0.0001729,53.2151,77.9235,44.5115,2.8207,-0.00035454,-0.0005003,0.0,0 STARLINK-4793,1 53867U 22114BB  22298.58334491 -.00050030  00000-0 -35454-3 0  9993,2 53867  53.2151  77.9235 0001729  44.5115   2.8207 15.73174047  1302,6727.969,91.535,350.997,348.671,0.0
53867.0,STARLINK-4793,PAYLOAD,2022-10-25 22:00:01,15.73142483,0.0001909999999999,53.2146,76.2748,42.6705,93.5951,0.00048756,0.00068196,0.0,0 STARLINK-4793,1 53867U 22114BB  22298.91668981  .00068196  00000-0  48756-3 0  9993,2 53867  53.2146  76.2748 0001910  42.6705  93.5951 15.73142483  1305,6728.059,91.537,351.209,348.639,0.0
53867.0,STARLINK-4793,PAYLOAD,2022-10-26 06:00:00,15.73175146,0.0001653,53.2148,74.6234,45.9651,179.1316,0.00063737,0.00089696,0.0,0 STARLINK-4793,1 53867U 22114BB  22299.25001157  .00089696  00000-0  63737-3 0  9991,2 53867  53.2148  74.6234 0001653  45.9651 179.1316 15.73175146  6436,6727.965999999999,91.535,350.9430000000001,348.719,0.0
53867.0,STARLINK-4793,PAYLOAD,2022-10-26 14:00:01,15.73221537,0.0001759,53.2153,72.9753,40.8395,273.183,-0.00022265,-0.00031781,0.0,0 STARLINK-4793,1 53867U 22114BB  22299.58334491 -.00031781  00000-0 -22265-3 0  9992,2 53867  53.2153  72.9753 0001759  40.8395 273.1830 15.73221537  6482,6727.834,91.532,350.88199999999995,348.515,0.0
